{
  "norad_id": 47733,
  "name": "STARLINK-2143",
  "history": [
    {
      "epoch": "2026-03-28T19:50:29.020128Z",
      "apogee_km": 476.4092349899829,
      "perigee_km": 474.0493468413697,
      "latitude_deg": -1.2260921100417638e-06,
      "longitude_deg": 3.9750888723089766,
      "height_km": 476.145258458355,
      "semi_major_axis_km": 6853.3662909156765,
      "eccentricity": 0.00017217,
      "inclination_deg": 53.1618,
      "raan_deg": 127.8376,
      "arg_perigee_deg": 90.8903,
      "mean_anomaly_deg": 269.2295,
      "mean_motion_rev_day": 15.30195237
    }
  ]
}